#dP2022  7 18 18  0  0.00000000      96 __u+U ITR00 EXT  IAC
## 2219 151200.00000000   900.00000000 59778 0.7500000000000
+  116   C06C07C08C09C10C11C12C13C14C16C19C20C21C22C23C24C25
+        C26C27C28C29C30C32C33C34C35C36C37C38C39C40C41C42C43
+        C44C45C46E01E02E03E04E05E07E08E09E10E11E12E13E14E15
+        E18E19E21E24E25E26E27E30E31E33E34E36G01G02G03G04G05
+        G06G07G08G09G10G11G12G13G14G15G16G17G18G19G20G21G22
+        G23G24G25G26G27G28G29G30G31G32J02J03R01R02R03R04R05
+        R07R08R09R11R12R13R14R15R17R18R19R20R21R24  0  0  0
++        11 10  9 10 11  8  9  9  9 10  9  7  9  7  9  9 10
++         8  8  9  9  8  7 10  7  8  7  8 10 10 11  9  7  9
++         6  8  8  7  8  8  7  8  7  9  7  7  7  7  7  7  7
++         7  9  5  8  8  6  9  9  8  9  7  7  8  8  7  7  7
++         7  7  7  8  7  6  7  7  7  6  7  7  6  8  8  7  7
++         7  8  8  7  7  8  8  7  8  7  9 10 10  9  7  8  7
++         9 10  8  9  7  9  6  9  8  9  8  7 10  9  0  0  0
%c M  cc GPS ccc cccc cccc cccc cccc ccccc ccccc ccccc ccccc
%c cc cc ccc ccc cccc cccc cccc cccc ccccc ccccc ccccc ccccc
%f  0.0000000  0.000000000  0.00000000000  0.000000000000000
%f  0.0000000  0.000000000  0.00000000000  0.000000000000000
%i    0    0    0    0      0      0      0      0         0
%i    0    0    0    0      0      0      0      0         0
/* IAC                                ULTRA-RAPID PREDICTION
/* S/V CLOCKS ARE ALIGNED TO GNSS TIME                      
/* G:C1WC2W R:C1PC2P E:C1XC5X C:C2IC6I J:C1CC2S             
/* PCV:IGS14_2215 OL/AL:FES2004  NONE     YN ORB:CoN CLK:CoN
*  2022 07 18 18 30  0.00000000
PC06 -18068.808473  32365.775716  19885.836395    421.461061
PC07  -3765.906087  38847.040560  16183.976037   -446.539169
PC08  -3739.735150  20771.545969 -36497.157270    409.119793
PC09 -11321.585797  31100.101544  26202.509249   -923.736775
PC10   1288.943882  40950.026740  11303.366009    117.256324
PC11 -12239.101702  21749.196530 -12466.493328    482.224735
PC12 -22370.811510  16021.311884   4745.926489   -573.980481
PC13   1406.933706  23368.406466 -34910.229351     27.646334
PC14  -1454.820620  25765.013545 -10679.477704    547.222780
PC16 -20102.956620  32237.051087  18177.739197    143.225280
PC19  -5299.884628 -27335.724446   1669.898865   -237.642261
PC20   6885.309144 -21125.433786  16874.274617   -963.946351
PC21 -15753.714424   1776.806811 -22949.854633     -8.641650
PC22 -14942.394230 -17981.561003 -15214.597012   -962.916268
PC23  23111.862637  13299.119291   8245.167909   -947.364341
PC24 -14886.473090  11119.202634  20825.394071   -967.722073
PC25   7436.673716  17377.508437  20520.723969   -705.753090
PC26 -26161.055720    -63.488701   9752.632923    707.706179
PC27  23118.796351  -9283.467000 -12607.205285    756.200881
PC28  15078.196879   7195.671913 -22352.588121     91.467266
PC29   1721.799463 -20299.948160  19058.987709    583.410476
PC30  17709.355211 -21228.424282   3863.139447    501.202737
PC32  15789.920816  -1784.176295  22953.664513   -972.298604
PC33   5428.563154  27330.095943  -1722.361778   -196.567138
PC34 -17043.021658  21533.771980  -4920.852754   -355.980483
PC35 -14474.172546  -7807.326831  22529.152031    371.751965
PC36  -6455.567501 -17511.289452 -20716.106087   -972.606172
PC37  26460.631032   1543.632804  -8678.799153   -918.547483
PC38 -12781.244836  19959.525095 -34869.437346     11.001696
PC39 -23388.115455  32834.692699  12014.783049     -0.103205
PC40  -8017.783159  36276.931147  20109.024340     -0.806697
PC41  14911.464691  18360.984783  14861.233029    -91.231490
PC42  -7524.719628  20369.909742 -17498.307531   -953.187607
PC43  -2390.654061  20654.516594 -18616.700281      3.640552
PC44 -22782.219995   9889.717168  12682.128819    728.195040
PC45 -23341.476322 -13081.336509  -7948.632078    812.264677
PC46  13212.398493 -11929.945182 -21473.532922   -438.866803
PE01 -19870.406348    570.686502  21937.721484   -517.647645
PE02  19772.086599   -747.159610 -22008.421552    312.765668
PE03  18210.730500 -12728.372884  19552.167423   -580.330277
PE04 -11126.354870  27132.858889  -4029.824017  -1074.224429
PE05  14724.614464   9451.849408  23880.985668   -161.771608
PE07  -2729.648760 -25787.434740 -14255.152884   -688.676421
PE08  10924.971308 -27225.672793   3895.173670   -565.876840
PE09   2726.328228  25772.676927  14321.608437   -592.106689
PE10  -5296.766234  17010.862543 -23654.719311   -501.421433
PE11   6823.694064  14859.421613 -24692.485565   2963.608158
PE12 -15844.286464  16407.687649 -18869.068569    -68.873981
PE13  -5990.455449 -15008.052066  24794.653643    429.867999
PE14 -17814.788835  20195.949694   8561.839082  -1775.329499
PE15  16000.075067 -16352.084575  18779.653086    732.456214
PE18  20939.452178  -8070.502726 -18025.708390  -1198.982917
PE19 -18298.421359  10107.558354 -20948.024008  -5057.078014
PE21 -23292.172036 -15866.005753   9051.433769   -746.657171
PE24  12612.731740  24482.811457  10818.610712   -731.985444
PE25  23241.615570  16089.249776  -8773.439858   -581.507970
PE26 -24871.413890  -4430.779683  15425.729993  -1391.998451
PE27 -13604.028017 -24371.598210  -9853.888086   -347.790410
PE30   4949.844197 -17883.938580 -23066.833696   -682.749723
PE31  -4013.397360  18458.368755  22801.649726   -500.139858
PE33 -28430.815077   8048.306358  -1730.942273   -454.590926
PE34  28373.132481  -8194.699335   1892.576950   -486.497089
PE36  24283.542459   4875.080434 -16217.448624   -404.027140
PG01   7688.978780  13612.059479 -21832.998282    318.910073
PG02  14466.534693 -15106.701913  17118.596662   -651.167590
PG03  11520.523881  22989.016424  -7000.476605   -310.510695
PG04   1306.918697  21948.653281  14841.933444   -144.346872
PG05   -383.468403 -19678.241543  17594.857240    -89.612090
PG06  25393.092779  -6323.208584   4844.111491    390.260142
PG07  22199.047642   7070.782247  13612.517184    318.798057
PG08  -3863.787396  24881.714074  -7902.173873    -76.751467
PG09  10360.525267  13236.458397  20488.794155   -317.724185
PG10 -19147.501061  -5364.822827 -17607.100917   -496.492835
PG11  17428.140175 -12295.474279  15805.303649    -10.544528
PG12  -7809.868370 -23741.856221  -9410.724702   -248.430022
PG13  13054.654597 -23012.605512   -610.739205    350.938992
PG14  19466.330274   6972.851297 -16723.339712   -111.656920
PG15    636.246742 -25248.766272  -8108.925561    -44.398126
PG16  -6490.063300  15618.670213  20083.773629   -516.059271
PG17  16739.385674  -3706.968747 -19867.875014    638.351917
PG18 -22113.540991  -6679.303224  13208.131038    109.399283
PG19  18285.049396 -11839.474307 -15284.145430    185.429906
PG20   9998.569238 -11979.598996  21501.610447    502.145594
PG21  -2413.552772  15378.738752 -20791.379066    161.051459
PG22 -17614.974583  14941.782966 -12534.669211    294.556652
PG23 -20180.141813 -14356.338119  -9764.349447    -33.480538
PG24  -3802.471090 -15490.238052 -21547.936903    193.535765
PG25 -17529.134186 -19978.139007   2337.311141    350.666155
PG26 -14032.902990   7554.363564  21187.856367    218.940065
PG27 -12590.273896  22716.162138   4227.460245    220.845436
PG28  15707.102208  -1864.971434 -20788.856099    335.467930
PG29  -8892.463192 -13522.756151  20992.568497   -534.755945
PG30  26417.672687    -23.023441   3957.474837   -534.265560
PG31 -24755.216075   7489.687592   6900.290183   -186.256942
PG32 -17127.493787   6797.282815 -18908.623427   -179.710721
PJ02 -26337.716162  21261.615393  30168.256783     -1.854332
PJ03 -34099.415268  24069.411322  -1844.773578     -0.172874
PR01  -5895.933206  19687.316683 -15118.900479     11.691888
PR02   2637.030256  25091.649224   3573.904484    524.515826
PR03   9445.807931  14827.271042  18502.666293     60.435139
PR04  10598.640615  -3378.781736  22983.184909    151.088685
PR05   6178.621566 -19817.994424  14850.943738     96.443091
PR07  -9559.517704 -14271.799173 -18837.993837     38.044163
PR08 -10658.677076   3548.256421 -22842.340513    -66.266614
PR09  -9974.624749 -14869.259718 -18110.374967     66.472512
PR11 -21594.334455  -3850.359356  13019.719765     32.927628
PR12  -8083.240179   8138.204647  22815.456338     19.360675
PR13   8747.124871  14540.077224  19038.483360    -24.746511
PR14  21881.056146  12757.433222   3136.713423     24.842130
PR15  21220.911304   3478.645645 -13700.562029     94.620176
PR17  13206.277983   3234.775966 -21570.872584    544.628102
PR18  21927.089308  -8312.227900 -10087.227318     33.377987
PR19  20147.905173 -14631.243559   5509.033010   -196.784298
PR20   4449.535889 -13480.202638  21202.970538    -74.860046
PR21 -14398.400763  -2114.224691  20950.803488   -318.444001
PR24  -3186.998619  13694.036176 -21278.659161    104.229723
EOF
